{
  "fetched_at": "2026-04-28T16:08:30.361650+00:00",
  "satellites": {
    "57166": {
      "name": "Meteor M2-3",
      "tle_line1": "1 57166U 23091A   26118.28243766  .00000003  00000+0  20103-4 0  9998",
      "tle_line2": "2 57166  98.6121 174.2718 0003165 330.5453  29.5547 14.24042394147414"
    },
    "59051": {
      "name": "Meteor M2-4",
      "tle_line1": "1 59051U 24039A   26118.31085505  .00000018  00000+0  27779-4 0  9997",
      "tle_line2": "2 59051  98.6977  78.2464 0006353 322.3098  37.7634 14.22424209112175"
    },
    "38771": {
      "name": "MetOp-B",
      "tle_line1": "1 38771U 12049A   26118.21161983  .00000120  00000+0  74630-4 0  9997",
      "tle_line2": "2 38771  98.6546 170.6978 0003441 120.7027 239.4490 14.21433734706168"
    },
    "43689": {
      "name": "MetOp-C",
      "tle_line1": "1 43689U 18087A   26118.23353330  .00000117  00000+0  73337-4 0  9999",
      "tle_line2": "2 43689  98.6677 178.7418 0000728  39.0690 321.0540 14.21512339387739"
    }
  }
}